HAWK-7A                 
1 56191U 23054P   26068.68910991  .00007758  00000+0  30248-3 0  9997
2 56191  97.2827 318.5579 0004249  51.2619 308.8999 15.26207271161849
STARLINK-32640          
1 62198U 24229G   26068.55914773  .00025875  00000+0  94615-3 0  9992
2 62198  42.9959 271.2603 0000876 169.5848 190.5022 15.27592769 70547
